{"type": "FeatureCollection", "features": [ {"type": "Feature", "properties": {"norad_id": 31915, "name": "FENGYUN 1C DEB", "group": "fengyun-1c-debris", "lat": 38.798479447207825, "lon": 6.238595813972625, "alt_km": 901.3228927851014, "timestamp": "2025-12-21T16:47:55.023399+00:00", "meta": {"OBJECT_NAME": "FENGYUN 1C DEB", "OBJECT_ID": "1999-025CLS", "EPOCH": "2025-12-21T08:07:58.605600", "MEAN_MOTION": 14.16237772, "ECCENTRICITY": 0.0101195, "INCLINATION": 98.6306, "RA_OF_ASC_NODE": 12.9023, "ARG_OF_PERICENTER": 245.2076, "MEAN_ANOMALY": 113.8545, "EPHEMERIS_TYPE": 0, "CLASSIFICATION_TYPE": "U", "NORAD_CAT_ID": 31915, "ELEMENT_SET_NO": 999, "REV_AT_EPOCH": 64229, "BSTAR": 0.00070301, "MEAN_MOTION_DOT": 1.421e-05, "MEAN_MOTION_DDOT": 0}, "tle": {"line1": "1 31915U 99025CLS 25355.33887275  .00001421  00000+0  70301-3 0  9998", "line2": "2 31915  98.6306  12.9023 0101195 245.2076 113.8545 14.16237772642293"}}, "geometry": {"type": "Point", "coordinates": [6.238595813972625, 38.798479447207825]}}, {"type": "Feature", "properties": {"norad_id": 31916, "name": "FENGYUN 1C DEB", "group": "fengyun-1c-debris", "lat": 44.399242200231974, "lon": 72.30438490247904, "alt_km": 684.7193555642943, "timestamp": "2025-12-21T16:47:55.023409+00:00", "meta": {"OBJECT_NAME": "FENGYUN 1C DEB", "OBJECT_ID": "1999-025CLT", "EPOCH": "2025-12-20T12:05:47.200128", "MEAN_MOTION": 14.32566487, "ECCENTRICITY": 0.01459244, "INCLINATION": 99.3299, "RA_OF_ASC_NODE": 80.2819, "ARG_OF_PERICENTER": 74.2025, "MEAN_ANOMALY": 287.5191, "EPHEMERIS_TYPE": 0, "CLASSIFICATION_TYPE": "U", "NORAD_CAT_ID": 31916, "ELEMENT_SET_NO": 999, "REV_AT_EPOCH": 64638, "BSTAR": 0.00080279235, "MEAN_MOTION_DOT": 2.399e-05, "MEAN_MOTION_DDOT": 0}, "tle": {"line1": "1 31916U 99025CLT 25354.50401852  .00002399  00000+0  80279-3 0  9990", "line2": "2 31916  99.3299  80.2819 0145924  74.2025 287.5191 14.32566487646382"}}, "geometry": {"type": "Point", "coordinates": [72.30438490247904, 44.399242200231974]}}, {"type": "Feature", "properties": {"norad_id": 31917, "name": "FENGYUN 1C DEB", "group": "fengyun-1c-debris", "lat": 35.14302927866881, "lon": 174.1811829407187, "alt_km": 833.6481688248714, "timestamp": "2025-12-21T16:47:55.023419+00:00", "meta": {"OBJECT_NAME": "FENGYUN 1C DEB", "OBJECT_ID": "1999-025CLU", "EPOCH": "2025-12-21T06:09:42.969312", "MEAN_MOTION": 14.37657084, "ECCENTRICITY": 0.0188896, "INCLINATION": 98.3604, "RA_OF_ASC_NODE": 347.8081, "ARG_OF_PERICENTER": 267.7096, "MEAN_ANOMALY": 106.0124, "EPHEMERIS_TYPE": 0, "CLASSIFICATION_TYPE": "U", "NORAD_CAT_ID": 31917, "ELEMENT_SET_NO": 999, "REV_AT_EPOCH": 96544, "BSTAR": 0.00042048, "MEAN_MOTION_DOT": 1.501e-05, "MEAN_MOTION_DDOT": 0}, "tle": {"line1": "1 31917U 99025CLU 25355.25674733  .00001501  00000+0  42048-3 0  9990", "line2": "2 31917  98.3604 347.8081 0188896 267.7096 106.0124 14.37657084965448"}}, "geometry": {"type": "Point", "coordinates": [174.1811829407187, 35.14302927866881]}}, {"type": "Feature", "properties": {"norad_id": 31919, "name": "FENGYUN 1C DEB", "group": "fengyun-1c-debris", "lat": -57.3868094348927, "lon": -55.748512961542005, "alt_km": 707.8509182522685, "timestamp": "2025-12-21T16:47:55.023429+00:00", "meta": {"OBJECT_NAME": "FENGYUN 1C DEB", "OBJECT_ID": "1999-025CLW", "EPOCH": "2025-12-17T15:26:20.465952", "MEAN_MOTION": 14.45773172, "ECCENTRICITY": 0.01023496, "INCLINATION": 99.1018, "RA_OF_ASC_NODE": 134.4115, "ARG_OF_PERICENTER": 192.0554, "MEAN_ANOMALY": 183.4001, "EPHEMERIS_TYPE": 0, "CLASSIFICATION_TYPE": "U", "NORAD_CAT_ID": 31919, "ELEMENT_SET_NO": 999, "REV_AT_EPOCH": 97152, "BSTAR": 0.0004018178, "MEAN_MOTION_DOT": 1.465e-05, "MEAN_MOTION_DDOT": 0}, "tle": {"line1": "1 31919U 99025CLW 25351.64329243  .00001465  00000+0  40182-3 0  9990", "line2": "2 31919  99.1018 134.4115 0102349 192.0554 183.4001 14.45773172971529"}}, "geometry": {"type": "Point", "coordinates": [-55.748512961542005, -57.3868094348927]}}, {"type": "Feature", "properties": {"norad_id": 31921, "name": "FENGYUN 1C DEB", "group": "fengyun-1c-debris", "lat": 16.093524807248407, "lon": 70.60583942331552, "alt_km": 947.2895677899196, "timestamp": "2025-12-21T16:47:55.023439+00:00", "meta": {"OBJECT_NAME": "FENGYUN 1C DEB", "OBJECT_ID": "1999-025CLY", "EPOCH": "2025-12-14T11:07:39.123264", "MEAN_MOTION": 13.75272567, "ECCENTRICITY": 0.02016687, "INCLINATION": 99.3382, "RA_OF_ASC_NODE": 240.7973, "ARG_OF_PERICENTER": 260.4861, "MEAN_ANOMALY": 97.3447, "EPHEMERIS_TYPE": 0, "CLASSIFICATION_TYPE": "U", "NORAD_CAT_ID": 31921, "ELEMENT_SET_NO": 999, "REV_AT_EPOCH": 92330, "BSTAR": 0.001077077, "MEAN_MOTION_DOT": 1.153e-05, "MEAN_MOTION_DDOT": 0}, "tle": {"line1": "1 31921U 99025CLY 25348.46364726  .00001153  00000+0  10771-2 0  9998", "line2": "2 31921  99.3382 240.7973 0201668 260.4861  97.3447 13.75272567923300"}}, "geometry": {"type": "Point", "coordinates": [70.60583942331552, 16.093524807248407]}}, {"type": "Feature", "properties": {"norad_id": 31922, "name": "FENGYUN 1C DEB", "group": "fengyun-1c-debris", "lat": 45.196532243391445, "lon": -22.375679991422977, "alt_km": 850.3324261078278, "timestamp": "2025-12-21T16:47:55.023449+00:00", "meta": {"OBJECT_NAME": "FENGYUN 1C DEB", "OBJECT_ID": "1999-025CLZ", "EPOCH": "2025-12-17T22:47:28.204800", "MEAN_MOTION": 13.8662582, "ECCENTRICITY": 0.01614332, "INCLINATION": 98.804, "RA_OF_ASC_NODE": 343.0708, "ARG_OF_PERICENTER": 12.3294, "MEAN_ANOMALY": 41.4764, "EPHEMERIS_TYPE": 0, "CLASSIFICATION_TYPE": "U", "NORAD_CAT_ID": 31922, "ELEMENT_SET_NO": 999, "REV_AT_EPOCH": 93089, "BSTAR": 0.0013428735, "MEAN_MOTION_DOT": 1.69e-05, "MEAN_MOTION_DDOT": 0}, "tle": {"line1": "1 31922U 99025CLZ 25351.94963200  .00001690  00000+0  13429-2 0  9997", "line2": "2 31922  98.8040 343.0708 0161433  12.3294  41.4764 13.86625820930898"}}, "geometry": {"type": "Point", "coordinates": [-22.375679991422977, 45.196532243391445]}}, {"type": "Feature", "properties": {"norad_id": 31923, "name": "FENGYUN 1C DEB", "group": "fengyun-1c-debris", "lat": -67.43662222371475, "lon": 109.07832950966932, "alt_km": 841.6140689030653, "timestamp": "2025-12-21T16:47:55.023460+00:00", "meta": {"OBJECT_NAME": "FENGYUN 1C DEB", "OBJECT_ID": "1999-025CMA", "EPOCH": "2025-12-20T05:40:47.009280", "MEAN_MOTION": 13.54908967, "ECCENTRICITY": 0.0300717, "INCLINATION": 98.4358, "RA_OF_ASC_NODE": 86.9011, "ARG_OF_PERICENTER": 284.1241, "MEAN_ANOMALY": 72.6659, "EPHEMERIS_TYPE": 0, "CLASSIFICATION_TYPE": "U", "NORAD_CAT_ID": 31923, "ELEMENT_SET_NO": 999, "REV_AT_EPOCH": 63736, "BSTAR": 0.0012343, "MEAN_MOTION_DOT": 1.096e-05, "MEAN_MOTION_DDOT": 0}, "tle": {"line1": "1 31923U 99025CMA 25354.23665520  .00001096  00000+0  12343-2 0  9991", "line2": "2 31923  98.4358  86.9011 0300717 284.1241  72.6659 13.54908967637364"}}, "geometry": {"type": "Point", "coordinates": [109.07832950966932, -67.43662222371475]}}, {"type": "Feature", "properties": {"norad_id": 31924, "name": "FENGYUN 1C DEB", "group": "fengyun-1c-debris", "lat": 47.834561355218135, "lon": -18.765453777519173, "alt_km": 906.9285532468894, "timestamp": "2025-12-21T16:47:55.023470+00:00", "meta": {"OBJECT_NAME": "FENGYUN 1C DEB", "OBJECT_ID": "1999-025CMB", "EPOCH": "2025-12-19T09:36:23.607072", "MEAN_MOTION": 13.63925419, "ECCENTRICITY": 0.0272605, "INCLINATION": 98.4004, "RA_OF_ASC_NODE": 149.8539, "ARG_OF_PERICENTER": 79.2769, "MEAN_ANOMALY": 283.8942, "EPHEMERIS_TYPE": 0, "CLASSIFICATION_TYPE": "U", "NORAD_CAT_ID": 31924, "ELEMENT_SET_NO": 999, "REV_AT_EPOCH": 91558, "BSTAR": 0.0010228, "MEAN_MOTION_DOT": 1.012e-05, "MEAN_MOTION_DDOT": 0}, "tle": {"line1": "1 31924U 99025CMB 25353.40027323  .00001012  00000+0  10228-2 0  9991", "line2": "2 31924  98.4004 149.8539 0272605  79.2769 283.8942 13.63925419915584"}}, "geometry": {"type": "Point", "coordinates": [-18.765453777519173, 47.834561355218135]}}, {"type": "Feature", "properties": {"norad_id": 31926, "name": "FENGYUN 1C DEB", "group": "fengyun-1c-debris", "lat": -13.137361854599096, "lon": -90.9035581502594, "alt_km": 769.885920124364, "timestamp": "2025-12-21T16:47:55.023480+00:00", "meta": {"OBJECT_NAME": "FENGYUN 1C DEB", "OBJECT_ID": "1999-025CMD", "EPOCH": "2025-12-21T05:49:33.142080", "MEAN_MOTION": 14.30818018, "ECCENTRICITY": 0.0039916, "INCLINATION": 98.9573, "RA_OF_ASC_NODE": 90.7352, "ARG_OF_PERICENTER": 229.2131, "MEAN_ANOMALY": 130.5585, "EPHEMERIS_TYPE": 0, "CLASSIFICATION_TYPE": "U", "NORAD_CAT_ID": 31926, "ELEMENT_SET_NO": 999, "REV_AT_EPOCH": 95349, "BSTAR": 0.0017121, "MEAN_MOTION_DOT": 4.483e-05, "MEAN_MOTION_DDOT": 0}, "tle": {"line1": "1 31926U 99025CMD 25355.24274470  .00004483  00000+0  17121-2 0  9998", "line2": "2 31926  98.9573  90.7352 0039916 229.2131 130.5585 14.30818018953499"}}, "geometry": {"type": "Point", "coordinates": [-90.9035581502594, -13.137361854599096]}}, {"type": "Feature", "properties": {"norad_id": 31929, "name": "FENGYUN 1C DEB", "group": "fengyun-1c-debris", "lat": 63.047541328322865, "lon": 107.49282066717188, "alt_km": 725.8144894486413, "timestamp": "2025-12-21T16:47:55.023491+00:00", "meta": {"OBJECT_NAME": "FENGYUN 1C DEB", "OBJECT_ID": "1999-025CME", "EPOCH": "2025-12-19T04:15:31.655808", "MEAN_MOTION": 14.34952586, "ECCENTRICITY": 0.0073948, "INCLINATION": 98.7916, "RA_OF_ASC_NODE": 122.6445, "ARG_OF_PERICENTER": 36.4152, "MEAN_ANOMALY": 324.203, "EPHEMERIS_TYPE": 0, "CLASSIFICATION_TYPE": "U", "NORAD_CAT_ID": 31929, "ELEMENT_SET_NO": 999, "REV_AT_EPOCH": 70738, "BSTAR": 0.00032929696, "MEAN_MOTION_DOT": 9.21e-06, "MEAN_MOTION_DDOT": 0}, "tle": {"line1": "1 31929U 99025CME 25353.17744972  .00000921  00000+0  32930-3 0  9999", "line2": "2 31929  98.7916 122.6445 0073948  36.4152 324.2030 14.34952586707388"}}, "geometry": {"type": "Point", "coordinates": [107.49282066717188, 63.047541328322865]}}]}